$$SOE
2460728.500000000, A.D. 2025-Feb-22 00:00:00.0000, -3.847766053461032E+08, 3.906296647072517E+06, -1.389422055543138E+07,
2460735.500000000, A.D. 2025-Mar-01 00:00:00.0000, -3.844508120638719E+08, -6.379096983603929E+06, -1.350235033983529E+07,
2460742.500000000, A.D. 2025-Mar-08 00:00:00.0000, -3.837972995813736E+08, -1.665908963640853E+07, -1.309897080559129E+07,
2460749.500000000, A.D. 2025-Mar-15 00:00:00.0000, -3.828157045425276E+08, -2.692487692995191E+07, -1.268439482743103E+07,
2460756.500000000, A.D. 2025-Mar-22 00:00:00.0000, -3.815058119621293E+08, -3.716760579681405E+07, -1.225894201698149E+07,
2460763.500000000, A.D. 2025-Mar-29 00:00:00.0000, -3.798675588073491E+08, -4.737837288991331E+07, -1.182293901333197E+07,
2460770.500000000, A.D. 2025-Apr-05 00:00:00.0000, -3.779010363186851E+08, -5.754822213576628E+07, -1.137671986892521E+07,
2460777.500000000, A.D. 2025-Apr-12 00:00:00.0000, -3.756064929943722E+08, -6.766814134904782E+07, -1.092062634449599E+07,
2460784.500000000, A.D. 2025-Apr-19 00:00:00.0000, -3.729843384332275E+08, -7.772905881483842E+07, -1.045500816837734E+07,
2460791.500000000, A.D. 2025-Apr-26 00:00:00.0000, -3.700351477820745E+08, -8.772184006568974E+07, -9.980223303041369E+06,
2460798.500000000, A.D. 2025-May-03 00:00:00.0000, -3.667596666948838E+08, -9.763728485455506E+07, -9.496638228799708E+06,
2460805.500000000, A.D. 2025-May-10 00:00:00.0000, -3.631588167940859E+08, -1.074661243332311E+08, -9.004628246948875E+06,
2460812.500000000, A.D. 2025-May-17 00:00:00.0000, -3.592337016135641E+08, -1.171990184964435E+08, -8.504577808867067E+06,
2460819.500000000, A.D. 2025-May-24 00:00:00.0000, -3.549856128636397E+08, -1.268265539676256E+08, -7.996880890894085E+06,
2460826.500000000, A.D. 2025-May-31 00:00:00.0000, -3.504160366135016E+08, -1.363392418400447E+08, -7.481941427144788E+06,
2460833.500000000, A.D. 2025-Jun-07 00:00:00.0000, -3.455266598045080E+08, -1.457275143962832E+08, -6.960173664172269E+06,
2460840.500000000, A.D. 2025-Jun-14 00:00:00.0000, -3.403193794713668E+08, -1.549817214048859E+08, -6.432002274350099E+06,
2460847.500000000, A.D. 2025-Jun-21 00:00:00.0000, -3.347963134698238E+08, -1.640921293024010E+08, -5.897862606402397E+06,
2460854.500000000, A.D. 2025-Jun-28 00:00:00.0000, -3.289598096004530E+08, -1.730489215349649E+08, -5.358201214974336E+06,
2460861.500000000, A.D. 2025-Jul-05 00:00:00.0000, -3.228124546600413E+08, -1.818421979423653E+08, -4.813476352431715E+06,
2460868.500000000, A.D. 2025-Jul-12 00:00:00.0000, -3.163570846226686E+08, -1.904619740334937E+08, -4.264158377885848E+06,
2460875.500000000, A.D. 2025-Jul-19 00:00:00.0000, -3.095967957719689E+08, -1.988981807786599E+08, -3.710730146550268E+06,
2460882.500000000, A.D. 2025-Jul-26 00:00:00.0000, -3.025349565874385E+08, -2.071406650311619E+08, -3.153687402003318E+06,
2460889.500000000, A.D. 2025-Aug-02 00:00:00.0000, -2.951752203318018E+08, -2.151791906157073E+08, -2.593539173798412E+06,
2460896.500000000, A.D. 2025-Aug-09 00:00:00.0000, -2.875215383255727E+08, -2.230034401614200E+08, -2.030808181485608E+06,
2460903.500000000, A.D. 2025-Aug-16 00:00:00.0000, -2.795781738380813E+08, -2.306030178109234E+08, -1.466031254653916E+06,
2460910.500000000, A.D. 2025-Aug-23 00:00:00.0000, -2.713497163052729E+08, -2.379674528630185E+08, -8.997597915458977E+05,
2460917.500000000, A.D. 2025-Aug-30 00:00:00.0000, -2.628410955444078E+08, -2.450862037145265E+08, -3.325602247373462E+05,
2460924.500000000, A.D. 2025-Sep-06 00:00:00.0000, -2.540575973773882E+08, -2.519486611860804E+08, 2.349857216382027E+05,
2460931.500000000, A.D. 2025-Sep-13 00:00:00.0000, -2.450048823208096E+08, -2.585441538070251E+08, 8.022809373566955E+05,
2460938.500000000, A.D. 2025-Sep-20 00:00:00.0000, -2.356890040526390E+08, -2.648619568053038E+08, 1.368712563898131E+06,
2460945.500000000, A.D. 2025-Sep-27 00:00:00.0000, -2.261164265748807E+08, -2.708913017983216E+08, 1.933651526820228E+06,
2460952.500000000, A.D. 2025-Oct-04 00:00:00.0000, -2.162940420570246E+08, -2.766213867568318E+08, 2.496452197571605E+06,
2460959.500000000, A.D. 2025-Oct-11 00:00:00.0000, -2.062291896900504E+08, -2.820413873012460E+08, 3.056452148175523E+06,
2460966.500000000, A.D. 2025-Oct-18 00:00:00.0000, -1.959296752106525E+08, -2.871404697284623E+08, 3.612971956746310E+06,
2460973.500000000, A.D. 2025-Oct-25 00:00:00.0000, -1.854037908871662E+08, -2.919078058905603E+08, 4.165315058714494E+06,
2460980.500000000, A.D. 2025-Nov-01 00:00:00.0000, -1.746603358464885E+08, -2.963325900492294E+08, 4.712767649038255E+06,
2460987.500000000, A.D. 2025-Nov-08 00:00:00.0000, -1.637086366111012E+08, -3.004040578808736E+08, 5.254598638308272E+06,
2460994.500000000, A.D. 2025-Nov-15 00:00:00.0000, -1.525585675835316E+08, -3.041115078377080E+08, 5.790059653884903E+06,
2461001.500000000, A.D. 2025-Nov-22 00:00:00.0000, -1.412205709405055E+08, -3.074443247945687E+08, 6.318385077423081E+06,
2461008.500000000, A.D. 2025-Nov-29 00:00:00.0000, -1.297056759335940E+08, -3.103920049974152E+08, 6.838792236848399E+06,
2461015.500000000, A.D. 2025-Dec-06 00:00:00.0000, -1.180255196938408E+08, -3.129441825977896E+08, 7.350481962736741E+06,
2461022.500000000, A.D. 2025-Dec-13 00:00:00.0000, -1.061923689007470E+08, -3.150906612865627E+08, 7.852639206859469E+06,
2461029.500000000, A.D. 2025-Dec-20 00:00:00.0000, -9.421913858901805E+07, -3.168214501389935E+08, 8.344433499977767E+06,
2461036.500000000, A.D. 2025-Dec-27 00:00:00.0000, -8.211940890057698E+07, -3.181268012007203E+08, 8.825019573444933E+06,
2461043.500000000, A.D. 2026-Jan-03 00:00:00.0000, -6.990744093600629E+07, -3.189972495370479E+08, 9.293538242189035E+06,
2461050.500000000, A.D. 2026-Jan-10 00:00:00.0000, -5.759819125460405E+07, -3.194236565213012E+08, 9.749117497754127E+06,
2461057.500000000, A.D. 2026-Jan-17 00:00:00.0000, -4.520732441987690E+07, -3.193972565355731E+08, 1.019087379779480E+07,
2461064.500000000, A.D. 2026-Jan-24 00:00:00.0000, -3.275122311317499E+07, -3.189097071152516E+08, 1.061791356287195E+07,
2461071.500000000, A.D. 2026-Jan-31 00:00:00.0000, -2.024699536056765E+07, -3.179531425607782E+08, 1.102933489440905E+07,
2461078.500000000, A.D. 2026-Feb-07 00:00:00.0000, -7.712478346569830E+06, -3.165202310447487E+08, 1.142422952011766E+07,
2461085.500000000, A.D. 2026-Feb-14 00:00:00.0000, 4.833761935757021E+06, -3.146042351477252E+08, 1.180168495826121E+07,
2461092.500000000, A.D. 2026-Feb-21 00:00:00.0000, 1.737243611322878E+07, -3.121990751044726E+08, 1.216078692664357E+07,
2461099.500000000, A.D. 2026-Feb-28 00:00:00.0000, 2.988354140637566E+07, -3.092993933992028E+08, 1.250062220233604E+07,
2461106.500000000, A.D. 2026-Mar-07 00:00:00.0000, 4.234637465969592E+07, -3.059006223756752E+08, 1.282028197115344E+07,
2461113.500000000, A.D. 2026-Mar-14 00:00:00.0000, 5.473955178445643E+07, -3.019990568292965E+08, 1.311886522825186E+07,
2461120.500000000, A.D. 2026-Mar-21 00:00:00.0000, 6.704103597613724E+07, -2.975919282325447E+08, 1.339548230705732E+07,
2461127.500000000, A.D. 2026-Mar-28 00:00:00.0000, 7.922817326097891E+07, -2.926774790180802E+08, 1.364925880516899E+07,
2461134.500000000, A.D. 2026-Apr-04 00:00:00.0000, 9.127773530350469E+07, -2.872550372334343E+08, 1.387933987910466E+07,
2461141.500000000, A.D. 2026-Apr-11 00:00:00.0000, 1.031659702405221E+08, -2.813250911682428E+08, 1.408489484325171E+07,
2461148.500000000, A.D. 2026-Apr-18 00:00:00.0000, 1.148686621291933E+08, -2.748893630933918E+08, 1.426512204154696E+07,
2461155.500000000, A.D. 2026-Apr-25 00:00:00.0000, 1.263611993991386E+08, -2.679508811212399E+08, 1.441925396516542E+07,
2461162.500000000, A.D. 2026-May-02 00:00:00.0000, 1.376186525798086E+08, -2.605140481348121E+08, 1.454656257887411E+07,
2461169.500000000, A.D. 2026-May-09 00:00:00.0000, 1.486158615458530E+08, -2.525847066774000E+08, 1.464636479936402E+07,
2461176.500000000, A.D. 2026-May-16 00:00:00.0000, 1.593275326296288E+08, -2.441701984150991E+08, 1.471802805566959E+07,
2461183.500000000, A.D. 2026-May-23 00:00:00.0000, 1.697283454499376E+08, -2.352794158421499E+08, 1.476097595616753E+07,
2461190.500000000, A.D. 2026-May-30 00:00:00.0000, 1.797930669810210E+08, -2.259228445594642E+08, 1.477469421517496E+07,
2461197.500000000, A.D. 2026-Jun-06 00:00:00.0000, 1.894966719378224E+08, -2.161125980319763E+08, 1.475873652759818E+07,
2461204.500000000, A.D. 2026-Jun-13 00:00:00.0000, 1.988144723200825E+08, -2.058624432784846E+08, 1.471272999143080E+07,
2461211.500000000, A.D. 2026-Jun-20 00:00:00.0000, 2.077222545667717E+08, -1.951878132854070E+08, 1.463638027821502E+07,
2461218.500000000, A.D. 2026-Jun-27 00:00:00.0000, 2.161964213458091E+08, -1.841058053040750E+08, 1.452947659033019E+07,
2461225.500000000, A.D. 2026-Jul-04 00:00:00.0000, 2.242141364800420E+08, -1.726351647675197E+08, 1.439189624973502E+07,
2461232.500000000, A.D. 2026-Jul-11 00:00:00.0000, 2.317534715595110E+08, -1.607962541047200E+08, 1.422360879151413E+07,
2461239.500000000, A.D. 2026-Jul-18 00:00:00.0000, 2.387935524494417E+08, -1.486110058005677E+08, 1.402467946543453E+07,
2461246.500000000, A.D. 2026-Jul-25 00:00:00.0000, 2.453147036894122E+08, -1.361028593403447E+08, 1.379527205796679E+07,
2461253.500000000, A.D. 2026-Aug-01 00:00:00.0000, 2.512985886969237E+08, -1.232966820288178E+08, 1.353565094778634E+07,
2461260.500000000, A.D. 2026-Aug-08 00:00:00.0000, 2.567283437972647E+08, -1.102186739825820E+08, 1.324618230213046E+07,
2461267.500000000, A.D. 2026-Aug-15 00:00:00.0000, 2.615887043102816E+08, -9.689625744166258E+07, 1.292733435639479E+07,
2461274.500000000, A.D. 2026-Aug-22 00:00:00.0000, 2.658661198283858E+08, -8.335795012890817E+07, 1.257967690926103E+07,
2461281.500000000, A.D. 2026-Aug-29 00:00:00.0000, 2.695488544159281E+08, -6.963322533141963E+07, 1.220388011013619E+07,
2461288.500000000, A.D. 2026-Sep-05 00:00:00.0000, 2.726270720531943E+08, -5.575236318549273E+07, 1.180071210202791E+07,
$$EOE